IRIDIUM 151             
1 43074U 17083E   24086.56396634  .00000037  00000+0  61220-5 0  9994
2 43074  86.3929 301.6756 0001729  90.0642 270.0752 14.34218703327665
IRIDIUM 137             
1 43076U 17083G   24086.82400927  .00000178  00000+0  56617-4 0  9995
2 43076  86.3936 301.6406 0001834  78.9404 281.1998 14.34222002327735
IRIDIUM 141             
1 43077U 17083H   24086.95719630  .00000626  00000+0  21645-3 0  9994
2 43077  86.3930 301.4617 0002081  89.6918 270.4516 14.34225110327758
IRIDIUM 153             
1 43078U 17083J   24086.90938706  .00000167  00000+0  52605-4 0  9998
2 43078  86.3911 269.9095 0002007 104.7962 255.3456 14.34219458328857
IRIDIUM 131             
1 43079U 17083K   24086.66544544  .00000074  00000+0  19219-4 0  9996
2 43079  86.3938 301.7159 0001972  81.2980 278.8439 14.34221853327641
